ONEWEB-0349             
1 49281U 21090C   25271.71532221  .00000093  00000+0  19750-3 0  9992
2 49281  87.9245 326.5835 0001855 100.1731 259.9611 13.20771784195317
ONEWEB-0353             
1 49282U 21090D   25271.74610540  .00000006  00000+0 -19037-4 0  9991
2 49282  87.9059 341.7718 0001557 100.4740 259.6565 13.14500747193238
ONEWEB-0356             
1 49283U 21090E   25271.71374448  .00000156  00000+0  35220-3 0  9999
2 49283  87.9242 326.5749 0002007  69.1361 290.9987 13.20772167195310
ONEWEB-0358             
1 49284U 21090F   25271.59221994  .00000083  00000+0  17213-3 0  9994
2 49284  87.9255 326.5945 0001934  92.9026 267.2329 13.20770982196022
ONEWEB-0359             
1 49285U 21090G   25271.58906744  .00000067  00000+0  13288-3 0  9997
2 49285  87.9245 326.6009 0002247  96.9563 263.1826 13.20770992196008
ONEWEB-0360             
1 49286U 21090H   25271.65535520  .00000064  00000+0  12456-3 0  9999
2 49286  87.9245 326.5965 0002015  98.8483 261.2879 13.20771338195320
ONEWEB-0361             
1 49287U 21090J   25271.71217244  .00000094  00000+0  19893-3 0  9992
2 49287  87.9243 326.5811 0001883  91.0634 269.0715 13.20770781195780
ONEWEB-0362             
1 49288U 21090K   25271.76092939  .00000031  00000+0  46070-4 0  9999
2 49288  87.9280 356.9854 0001862 107.7831 252.3506 13.19726556192438
